OBJECT_NAME,OBJECT_ID,EPOCH,MEAN_MOTION,ECCENTRICITY,INCLINATION,RA_OF_ASC_NODE,ARG_OF_PERICENTER,MEAN_ANOMALY,EPHEMERIS_TYPE,CLASSIFICATION_TYPE,NORAD_CAT_ID,ELEMENT_SET_NO,REV_AT_EPOCH,BSTAR,MEAN_MOTION_DOT,MEAN_MOTION_DDOT,RMS,DATA_SOURCE
STARLINK-4489,2022-101R,2025-10-07T18:33:42.000019,15.08810041,0.0001301,53.2176,30.5899,94.5043,46.4101,0,C,53542,280,1,0.0014261,0.00022739,0,0.246,SpaceX-E
STARLINK-4297,2022-101S,2025-10-07T18:23:41.999971,15.0881842,0.0001268,53.2168,30.6878,95.5221,287.6118,0,C,53543,280,1,0.0012364,0.00019717,0,0.245,SpaceX-E
STARLINK-4303,2022-101T,2025-10-07T18:23:41.999971,15.08822208,0.0001196,53.2176,30.6186,85.0776,58.079,0,C,53544,280,1,0.0012525,0.00019976,0,0.244,SpaceX-E
STARLINK-4475,2022-101U,2025-10-07T18:16:41.999981,15.08814566,0.0001514,53.2173,30.6429,82.0626,334.6854,0,C,53545,280,1,0.0013196,0.00021042,0,0.244,SpaceX-E
STARLINK-4477,2022-101V,2025-10-07T18:19:42.000038,15.08832802,0.0001294,53.2177,20.1638,91.3156,312.048,0,C,53546,280,1,0.00025679,4.0949e-05,0,0.392,SpaceX-E
STARLINK-4474,2022-101W,2025-10-07T18:20:42.000000,15.08793224,0.0001212,53.2176,30.6294,97.6579,14.1806,0,C,53547,280,1,0.00012719,2.0259e-05,0,0.747,SpaceX-E
STARLINK-4513,2022-101X,2025-10-07T18:23:41.999971,15.08834855,0.0001317,53.2178,30.6192,93.4388,109.7141,0,C,53548,280,1,-0.00024302,-3.8747e-05,0,0.417,SpaceX-E
STARLINK-4518,2022-101Z,2025-10-07T18:23:41.999971,15.08838298,0.0001409,53.2178,30.619,92.3616,130.7833,0,C,53550,280,1,-0.00016686,-2.6606e-05,0,0.405,SpaceX-E
STARLINK-4514,2022-101AA,2025-10-07T18:22:42.000010,15.08832557,0.0001319,53.2179,30.6232,83.0263,96.3416,0,C,53551,280,1,0.00044538,7.1027e-05,0,0.316,SpaceX-E
STARLINK-4495,2022-101AB,2025-10-07T18:17:42.000029,15.08820516,0.0001426,53.2175,30.6373,88.3315,152.1967,0,C,53552,280,1,0.0012104,0.00019304,0,0.258,SpaceX-E
STARLINK-4501,2022-101AC,2025-10-07T18:19:42.000038,15.08834847,0.0001372,53.2171,30.5055,86.5193,201.6169,0,C,53553,280,1,0.00013977,2.2289e-05,0,0.366,SpaceX-E
STARLINK-4506,2022-101AD,2025-10-07T18:16:41.999981,15.08834907,0.0001331,53.2172,30.6512,89.3536,182.1601,0,C,53554,280,1,0.00026962,4.2997e-05,0,0.346,SpaceX-E
STARLINK-4504,2022-101AE,2025-10-07T18:23:41.999971,15.08826995,0.0001632,53.2177,30.6196,86.4584,156.672,0,C,53555,280,1,0.0012474,0.00019897,0,0.245,SpaceX-E
STARLINK-4505,2022-101AF,2025-10-07T18:15:42.000019,15.0880629,0.0001354,53.217,30.6466,80.5069,232.4705,0,C,53556,280,1,0.0014149,0.00022558,0,0.259,SpaceX-E
STARLINK-4502,2022-101AG,2025-10-07T18:12:41.999962,15.08837931,0.0001271,53.2173,30.6531,88.2027,153.4267,0,C,53557,280,1,1.1676e-05,1.8619e-06,0,0.378,SpaceX-E
STARLINK-4494,2022-101AH,2025-10-07T18:17:42.000029,15.0881554,0.0001414,53.2177,25.3598,83.8175,224.3734,0,C,53558,280,1,0.0014318,0.00022834,0,0.252,SpaceX-E
STARLINK-4508,2022-101AJ,2025-10-07T17:42:41.999990,15.08826865,0.0001722,53.2168,30.749,95.0906,73.2198,0,C,53559,280,1,0.00070959,0.00011316,0,0.242,SpaceX-E
STARLINK-4564,2022-101AK,2025-10-07T18:16:41.999981,15.08832072,0.0001259,53.217,20.8263,88.5285,343.0875,0,C,53560,280,1,0.00033374,5.322e-05,0,0.391,SpaceX-E
STARLINK-4563,2022-101AL,2025-10-07T18:17:42.000029,15.08793397,0.0001644,53.2168,30.64,73.7991,266.6208,0,C,53561,280,1,0.0030051,0.00047927,0,0.414,SpaceX-E
STARLINK-4565,2022-101AM,2025-10-07T18:25:41.999981,15.08814476,0.0001436,53.2173,20.7592,90.5563,35.0528,0,C,53562,280,1,0.0015456,0.00024649,0,0.243,SpaceX-E
STARLINK-4561,2022-101AN,2025-10-07T18:18:41.999990,15.08831923,0.0001352,53.2171,20.859,90.8569,328.2782,0,C,53563,280,1,0.000362,5.7727e-05,0,0.381,SpaceX-E
STARLINK-4577,2022-101AP,2025-10-07T18:20:42.000000,15.08815509,0.0001284,53.2174,20.6991,86.2839,60.5044,0,C,53564,280,1,0.0015307,0.00024411,0,0.244,SpaceX-E
STARLINK-4575,2022-101AQ,2025-10-07T18:19:42.000038,15.08812231,0.0001382,53.2172,20.7883,90.8233,6.9407,0,C,53565,280,1,0.0015096,0.00024073,0,0.246,SpaceX-E
STARLINK-4576,2022-101AR,2025-10-07T18:19:42.000038,15.08828464,0.0001294,53.2171,20.6211,81.179,101.8818,0,C,53566,280,1,0.00026736,4.2629e-05,0,0.383,SpaceX-E
STARLINK-4585,2022-101AS,2025-10-07T18:23:41.999971,15.0881524,0.0001276,53.2173,20.7277,86.6062,51.474,0,C,53567,280,1,0.0015398,0.00024557,0,0.241,SpaceX-E
STARLINK-4583,2022-101AT,2025-10-07T18:25:41.999981,15.08806899,0.0001186,53.2175,20.4817,94.7912,171.0791,0,C,53568,280,1,0.0014045,0.00022392,0,0.265,SpaceX-E
STARLINK-4582,2022-101AU,2025-10-07T18:18:41.999990,15.0880674,0.0001336,53.2174,20.6651,77.4095,81.8621,0,C,53569,280,1,0.0016358,0.00026081,0,0.24,SpaceX-E
STARLINK-4550,2022-101AV,2025-10-07T18:23:41.999971,15.08816006,0.0001285,53.2174,20.5288,94.3466,143.8806,0,C,53570,280,1,0.0015326,0.00024442,0,0.242,SpaceX-E
STARLINK-4584,2022-101AW,2025-10-07T18:19:42.000038,15.08809178,0.0001322,53.2172,20.5801,81.2561,121.8599,0,C,53571,280,1,0.0013494,0.00021515,0,0.26,SpaceX-E
