STARLINK-4489           
1 53542C 22101R   25280.77340278  .00022739  00000+0  14261-2 0  2801
2 53542  53.2176  30.5899 0001301  94.5043  46.4101 15.08810041    14
STARLINK-4297           
1 53543C 22101S   25280.76645833  .00019717  00000+0  12364-2 0  2800
2 53543  53.2168  30.6878 0001268  95.5221 287.6118 15.08818420    11
STARLINK-4303           
1 53544C 22101T   25280.76645833  .00019976  00000+0  12525-2 0  2807
2 53544  53.2176  30.6186 0001196  85.0776  58.0790 15.08822208    17
STARLINK-4475           
1 53545C 22101U   25280.76159722  .00021042  00000+0  13196-2 0  2807
2 53545  53.2173  30.6429 0001514  82.0626 334.6854 15.08814566    12
STARLINK-4477           
1 53546C 22101V   25280.76368056  .00004095  00000+0  25679-3 0  2809
2 53546  53.2177  20.1638 0001294  91.3156 312.0480 15.08832802    17
STARLINK-4474           
1 53547C 22101W   25280.76437500  .00002026  00000+0  12719-3 0  2804
2 53547  53.2176  30.6294 0001212  97.6579  14.1806 15.08793224    15
STARLINK-4513           
1 53548C 22101X   25280.76645833 -.00003875  00000+0 -24302-3 0  2801
2 53548  53.2178  30.6192 0001317  93.4388 109.7141 15.08834855    12
STARLINK-4518           
1 53550C 22101Z   25280.76645833 -.00002661  00000+0 -16686-3 0  2802
2 53550  53.2178  30.6190 0001409  92.3616 130.7833 15.08838298    14
STARLINK-4514           
1 53551C 22101AA  25280.76576389  .00007103  00000+0  44538-3 0  2803
2 53551  53.2179  30.6232 0001319  83.0263  96.3416 15.08832557    14
STARLINK-4495           
1 53552C 22101AB  25280.76229167  .00019304  00000+0  12104-2 0  2802
2 53552  53.2175  30.6373 0001426  88.3315 152.1967 15.08820516    16
STARLINK-4501           
1 53553C 22101AC  25280.76368056  .00002229  00000+0  13977-3 0  2802
2 53553  53.2171  30.5055 0001372  86.5193 201.6169 15.08834847    19
STARLINK-4506           
1 53554C 22101AD  25280.76159722  .00004300  00000+0  26962-3 0  2801
2 53554  53.2172  30.6512 0001331  89.3536 182.1601 15.08834907    18
STARLINK-4504           
1 53555C 22101AE  25280.76645833  .00019897  00000+0  12474-2 0  2804
2 53555  53.2177  30.6196 0001632  86.4584 156.6720 15.08826995    13
STARLINK-4505           
1 53556C 22101AF  25280.76090278  .00022558  00000+0  14149-2 0  2801
2 53556  53.2170  30.6466 0001354  80.5069 232.4705 15.08806290    13
STARLINK-4502           
1 53557C 22101AG  25280.75881944  .00000186  00000+0  11676-4 0  2806
2 53557  53.2173  30.6531 0001271  88.2027 153.4267 15.08837931    18
STARLINK-4494           
1 53558C 22101AH  25280.76229167  .00022834  00000+0  14318-2 0  2809
2 53558  53.2177  25.3598 0001414  83.8175 224.3734 15.08815540    10
STARLINK-4508           
1 53559C 22101AJ  25280.73798611  .00011316  00000+0  70959-3 0  2809
2 53559  53.2168  30.7490 0001722  95.0906  73.2198 15.08826865    18
STARLINK-4564           
1 53560C 22101AK  25280.76159722  .00005322  00000+0  33374-3 0  2808
2 53560  53.2170  20.8263 0001259  88.5285 343.0875 15.08832072    10
STARLINK-4563           
1 53561C 22101AL  25280.76229167  .00047927  00000+0  30051-2 0  2805
2 53561  53.2168  30.6400 0001644  73.7991 266.6208 15.08793397    14
STARLINK-4565           
1 53562C 22101AM  25280.76784722  .00024649  00000+0  15456-2 0  2807
2 53562  53.2173  20.7592 0001436  90.5563  35.0528 15.08814476    19
STARLINK-4561           
1 53563C 22101AN  25280.76298611  .00005773  00000+0  36200-3 0  2803
2 53563  53.2171  20.8590 0001352  90.8569 328.2782 15.08831923    18
STARLINK-4577           
1 53564C 22101AP  25280.76437500  .00024411  00000+0  15307-2 0  2800
2 53564  53.2174  20.6991 0001284  86.2839  60.5044 15.08815509    17
STARLINK-4575           
1 53565C 22101AQ  25280.76368056  .00024073  00000+0  15096-2 0  2809
2 53565  53.2172  20.7883 0001382  90.8233   6.9407 15.08812231    11
STARLINK-4576           
1 53566C 22101AR  25280.76368056  .00004263  00000+0  26736-3 0  2803
2 53566  53.2171  20.6211 0001294  81.1790 101.8818 15.08828464    14
STARLINK-4585           
1 53567C 22101AS  25280.76645833  .00024557  00000+0  15398-2 0  2804
2 53567  53.2173  20.7277 0001276  86.6062  51.4740 15.08815240    14
STARLINK-4583           
1 53568C 22101AT  25280.76784722  .00022392  00000+0  14045-2 0  2809
2 53568  53.2175  20.4817 0001186  94.7912 171.0791 15.08806899    13
STARLINK-4582           
1 53569C 22101AU  25280.76298611  .00026081  00000+0  16358-2 0  2805
2 53569  53.2174  20.6651 0001336  77.4095  81.8621 15.08806740    13
STARLINK-4550           
1 53570C 22101AV  25280.76645833  .00024442  00000+0  15326-2 0  2802
2 53570  53.2174  20.5288 0001285  94.3466 143.8806 15.08816006    13
STARLINK-4584           
1 53571C 22101AW  25280.76368056  .00021515  00000+0  13494-2 0  2804
2 53571  53.2172  20.5801 0001322  81.2561 121.8599 15.08809178    13
